[
  {
    "OBJECT_NAME": "STARLINK-32556",
    "OBJECT_ID": "24202P",
    "EPOCH": "2025-11-11T01:07:50.760192",
    "MEAN_MOTION": 15.27585179,
    "ECCENTRICITY": 0.0001131,
    "INCLINATION": 43.0019,
    "RA_OF_ASC_NODE": 187.9528,
    "ARG_OF_PERICENTER": 271.0764,
    "MEAN_ANOMALY": 88.9958,
    "EPHEMERIS_TYPE": 0,
    "CLASSIFICATION_TYPE": "U",
    "NORAD_CAT_ID": 61858,
    "ELEMENT_SET_NO": 999,
    "REV_AT_EPOCH": 5719,
    "BSTAR": 0.00014393,
    "MEAN_MOTION_DOT": 3.701e-05,
    "MEAN_MOTION_DDOT": 0.0,
    "TLE_LINE1": "1 61858U 24202P   25315.04711528  .00003701  00000+0  14393-3 0  9995",
    "TLE_LINE2": "2 61858  43.0019 187.9528 0001131 271.0764  88.9958 15.27585179 57199",
    "COMMENT": "Grouped by shell and plane from TLE"
  },
  {
    "OBJECT_NAME": "STARLINK-32466",
    "OBJECT_ID": "24202Q",
    "EPOCH": "2025-11-11T01:17:05.481888",
    "MEAN_MOTION": 15.27600408,
    "ECCENTRICITY": 0.0001156,
    "INCLINATION": 43.0025,
    "RA_OF_ASC_NODE": 187.9968,
    "ARG_OF_PERICENTER": 254.6623,
    "MEAN_ANOMALY": 105.4101,
    "EPHEMERIS_TYPE": 0,
    "CLASSIFICATION_TYPE": "U",
    "NORAD_CAT_ID": 61859,
    "ELEMENT_SET_NO": 999,
    "REV_AT_EPOCH": 5719,
    "BSTAR": 0.0,
    "MEAN_MOTION_DOT": -9.68e-06,
    "MEAN_MOTION_DDOT": 0.0,
    "TLE_LINE1": "1 61859U 24202Q   25315.05353567 -.00000968  00000+0 -25626-4 0  9998",
    "TLE_LINE2": "2 61859  43.0025 187.9968 0001156 254.6623 105.4101 15.27600408 57191",
    "COMMENT": "Grouped by shell and plane from TLE"
  },
  {
    "OBJECT_NAME": "STARLINK-32316",
    "OBJECT_ID": "24202R",
    "EPOCH": "2025-11-11T00:53:43.992672",
    "MEAN_MOTION": 15.2758283,
    "ECCENTRICITY": 0.0001377,
    "INCLINATION": 43.0026,
    "RA_OF_ASC_NODE": 184.4153,
    "ARG_OF_PERICENTER": 281.4879,
    "MEAN_ANOMALY": 78.5818,
    "EPHEMERIS_TYPE": 0,
    "CLASSIFICATION_TYPE": "U",
    "NORAD_CAT_ID": 61860,
    "ELEMENT_SET_NO": 999,
    "REV_AT_EPOCH": 5722,
    "BSTAR": 0.00017701000000000001,
    "MEAN_MOTION_DOT": 4.612e-05,
    "MEAN_MOTION_DDOT": 0.0,
    "TLE_LINE1": "1 61860U 24202R   25315.03731473  .00004612  00000+0  17701-3 0  9996",
    "TLE_LINE2": "2 61860  43.0026 184.4153 0001377 281.4879  78.5818 15.27582830 57225",
    "COMMENT": "Grouped by shell and plane from TLE"
  },
  {
    "OBJECT_NAME": "STARLINK-32415",
    "OBJECT_ID": "24202S",
    "EPOCH": "2025-11-10T23:54:02.743776",
    "MEAN_MOTION": 15.27570889,
    "ECCENTRICITY": 9.94e-05,
    "INCLINATION": 42.9993,
    "RA_OF_ASC_NODE": 188.4189,
    "ARG_OF_PERICENTER": 257.8995,
    "MEAN_ANOMALY": 102.1745,
    "EPHEMERIS_TYPE": 0,
    "CLASSIFICATION_TYPE": "U",
    "NORAD_CAT_ID": 61861,
    "ELEMENT_SET_NO": 999,
    "REV_AT_EPOCH": 5717,
    "BSTAR": 0.0,
    "MEAN_MOTION_DOT": -3.311e-05,
    "MEAN_MOTION_DDOT": 0.0,
    "TLE_LINE1": "1 61861U 24202S   25314.99586509 -.00003311  00000+0 -11087-3 0  9997",
    "TLE_LINE2": "2 61861  42.9993 188.4189 0000994 257.8995 102.1745 15.27570889 57178",
    "COMMENT": "Grouped by shell and plane from TLE"
  },
  {
    "OBJECT_NAME": "STARLINK-32393",
    "OBJECT_ID": "24202T",
    "EPOCH": "2025-11-11T01:22:37.730496",
    "MEAN_MOTION": 15.27606971,
    "ECCENTRICITY": 0.0001567,
    "INCLINATION": 42.9994,
    "RA_OF_ASC_NODE": 188.0236,
    "ARG_OF_PERICENTER": 250.128,
    "MEAN_ANOMALY": 109.9403,
    "EPHEMERIS_TYPE": 0,
    "CLASSIFICATION_TYPE": "U",
    "NORAD_CAT_ID": 61862,
    "ELEMENT_SET_NO": 999,
    "REV_AT_EPOCH": 5719,
    "BSTAR": 0.00027942,
    "MEAN_MOTION_DOT": 7.441e-05,
    "MEAN_MOTION_DDOT": 0.0,
    "TLE_LINE1": "1 61862U 24202T   25315.05738114  .00007441  00000+0  27942-3 0  9990",
    "TLE_LINE2": "2 61862  42.9994 188.0236 0001567 250.1280 109.9403 15.27606971 57199",
    "COMMENT": "Grouped by shell and plane from TLE"
  },
  {
    "OBJECT_NAME": "STARLINK-32324",
    "OBJECT_ID": "24202U",
    "EPOCH": "2025-11-11T00:05:08.740032",
    "MEAN_MOTION": 15.27595423,
    "ECCENTRICITY": 9.99e-05,
    "INCLINATION": 43.0003,
    "RA_OF_ASC_NODE": 188.4758,
    "ARG_OF_PERICENTER": 304.5104,
    "MEAN_ANOMALY": 55.5653,
    "EPHEMERIS_TYPE": 0,
    "CLASSIFICATION_TYPE": "U",
    "NORAD_CAT_ID": 61863,
    "ELEMENT_SET_NO": 999,
    "REV_AT_EPOCH": 5717,
    "BSTAR": 8.983400000000001e-06,
    "MEAN_MOTION_DOT": -1.5e-07,
    "MEAN_MOTION_DDOT": 0.0,
    "TLE_LINE1": "1 61863U 24202U   25315.00357338 -.00000015  00000+0  89834-5 0  9992",
    "TLE_LINE2": "2 61863  43.0003 188.4758 0000999 304.5104  55.5653 15.27595423 57173",
    "COMMENT": "Grouped by shell and plane from TLE"
  },
  {
    "OBJECT_NAME": "STARLINK-32318",
    "OBJECT_ID": "24202V",
    "EPOCH": "2025-11-11T01:48:33.113664",
    "MEAN_MOTION": 15.27591951,
    "ECCENTRICITY": 0.0001124,
    "INCLINATION": 42.9992,
    "RA_OF_ASC_NODE": 188.1565,
    "ARG_OF_PERICENTER": 275.8657,
    "MEAN_ANOMALY": 84.2066,
    "EPHEMERIS_TYPE": 0,
    "CLASSIFICATION_TYPE": "U",
    "NORAD_CAT_ID": 61864,
    "ELEMENT_SET_NO": 999,
    "REV_AT_EPOCH": 5719,
    "BSTAR": 0.00010203,
    "MEAN_MOTION_DOT": 2.548e-05,
    "MEAN_MOTION_DDOT": 0.0,
    "TLE_LINE1": "1 61864U 24202V   25315.07538326  .00002548  00000+0  10203-3 0  9992",
    "TLE_LINE2": "2 61864  42.9992 188.1565 0001124 275.8657  84.2066 15.27591951 57197",
    "COMMENT": "Grouped by shell and plane from TLE"
  },
  {
    "OBJECT_NAME": "STARLINK-32401",
    "OBJECT_ID": "24202W",
    "EPOCH": "2025-11-11T00:19:56.448192",
    "MEAN_MOTION": 15.27578745,
    "ECCENTRICITY": 0.0001173,
    "INCLINATION": 42.9973,
    "RA_OF_ASC_NODE": 188.5544,
    "ARG_OF_PERICENTER": 281.9189,
    "MEAN_ANOMALY": 78.1531,
    "EPHEMERIS_TYPE": 0,
    "CLASSIFICATION_TYPE": "U",
    "NORAD_CAT_ID": 61865,
    "ELEMENT_SET_NO": 999,
    "REV_AT_EPOCH": 5718,
    "BSTAR": 0.0,
    "MEAN_MOTION_DOT": -9.997e-05,
    "MEAN_MOTION_DDOT": 0.0,
    "TLE_LINE1": "1 61865U 24202W   25315.01384778 -.00009997  00000+0 -35427-3 0  9999",
    "TLE_LINE2": "2 61865  42.9973 188.5544 0001173 281.9189  78.1531 15.27578745 57184",
    "COMMENT": "Grouped by shell and plane from TLE"
  },
  {
    "OBJECT_NAME": "STARLINK-32588",
    "OBJECT_ID": "24202X",
    "EPOCH": "2025-11-11T01:44:50.669952",
    "MEAN_MOTION": 15.27588793,
    "ECCENTRICITY": 0.0001277,
    "INCLINATION": 42.9995,
    "RA_OF_ASC_NODE": 188.1353,
    "ARG_OF_PERICENTER": 260.0493,
    "MEAN_ANOMALY": 100.0215,
    "EPHEMERIS_TYPE": 0,
    "CLASSIFICATION_TYPE": "U",
    "NORAD_CAT_ID": 61866,
    "ELEMENT_SET_NO": 999,
    "REV_AT_EPOCH": 5719,
    "BSTAR": 0.00018173,
    "MEAN_MOTION_DOT": 4.743e-05,
    "MEAN_MOTION_DDOT": 0.0,
    "TLE_LINE1": "1 61866U 24202X   25315.07280868  .00004743  00000+0  18173-3 0  9992",
    "TLE_LINE2": "2 61866  42.9995 188.1353 0001277 260.0493 100.0215 15.27588793 57193",
    "COMMENT": "Grouped by shell and plane from TLE"
  },
  {
    "OBJECT_NAME": "STARLINK-32569",
    "OBJECT_ID": "24202Y",
    "EPOCH": "2025-11-11T01:59:39.226560",
    "MEAN_MOTION": 15.27591579,
    "ECCENTRICITY": 6.13e-05,
    "INCLINATION": 42.9976,
    "RA_OF_ASC_NODE": 188.2153,
    "ARG_OF_PERICENTER": 38.4755,
    "MEAN_ANOMALY": 321.614,
    "EPHEMERIS_TYPE": 0,
    "CLASSIFICATION_TYPE": "U",
    "NORAD_CAT_ID": 61867,
    "ELEMENT_SET_NO": 999,
    "REV_AT_EPOCH": 5719,
    "BSTAR": 0.00012963,
    "MEAN_MOTION_DOT": 3.308e-05,
    "MEAN_MOTION_DDOT": 0.0,
    "TLE_LINE1": "1 61867U 24202Y   25315.08309290  .00003308  00000+0  12963-3 0  9992",
    "TLE_LINE2": "2 61867  42.9976 188.2153 0000613  38.4755 321.6140 15.27591579 57197",
    "COMMENT": "Grouped by shell and plane from TLE"
  },
  {
    "OBJECT_NAME": "STARLINK-32682",
    "OBJECT_ID": "24229E",
    "EPOCH": "2025-11-11T06:29:06.652896",
    "MEAN_MOTION": 15.27583537,
    "ECCENTRICITY": 0.0001613,
    "INCLINATION": 42.9988,
    "RA_OF_ASC_NODE": 186.8086,
    "ARG_OF_PERICENTER": 286.2418,
    "MEAN_ANOMALY": 73.8256,
    "EPHEMERIS_TYPE": 0,
    "CLASSIFICATION_TYPE": "U",
    "NORAD_CAT_ID": 62196,
    "ELEMENT_SET_NO": 999,
    "REV_AT_EPOCH": 5282,
    "BSTAR": 0.001245,
    "MEAN_MOTION_DOT": 0.0003416,
    "MEAN_MOTION_DDOT": 0.0,
    "TLE_LINE1": "1 62196U 24229E   25315.27021589  .00034160  00000+0  12450-2 0  9990",
    "TLE_LINE2": "2 62196  42.9988 186.8086 0001613 286.2418  73.8256 15.27583537 52829",
    "COMMENT": "Grouped by shell and plane from TLE"
  },
  {
    "OBJECT_NAME": "STARLINK-33611",
    "OBJECT_ID": "25053Q",
    "EPOCH": "2025-11-11T01:35:35.786688",
    "MEAN_MOTION": 15.27613626,
    "ECCENTRICITY": 0.0001123,
    "INCLINATION": 42.9986,
    "RA_OF_ASC_NODE": 188.0507,
    "ARG_OF_PERICENTER": 274.5076,
    "MEAN_ANOMALY": 85.5647,
    "EPHEMERIS_TYPE": 0,
    "CLASSIFICATION_TYPE": "U",
    "NORAD_CAT_ID": 63279,
    "ELEMENT_SET_NO": 999,
    "REV_AT_EPOCH": 3820,
    "BSTAR": 0.0007163100000000001,
    "MEAN_MOTION_DOT": 0.00019522,
    "MEAN_MOTION_DDOT": 0.0,
    "TLE_LINE1": "1 63279U 25053Q   25315.06638642  .00019522  00000+0  71631-3 0  9992",
    "TLE_LINE2": "2 63279  42.9986 188.0507 0001123 274.5076  85.5647 15.27613626 38201",
    "COMMENT": "Grouped by shell and plane from TLE"
  },
  {
    "OBJECT_NAME": "STARLINK-33673",
    "OBJECT_ID": "25053V",
    "EPOCH": "2025-11-11T00:22:16.212288",
    "MEAN_MOTION": 15.27653267,
    "ECCENTRICITY": 0.0002237,
    "INCLINATION": 43.0028,
    "RA_OF_ASC_NODE": 184.1932,
    "ARG_OF_PERICENTER": 260.8983,
    "MEAN_ANOMALY": 99.1616,
    "EPHEMERIS_TYPE": 0,
    "CLASSIFICATION_TYPE": "U",
    "NORAD_CAT_ID": 63284,
    "ELEMENT_SET_NO": 999,
    "REV_AT_EPOCH": 3824,
    "BSTAR": 0.0016426,
    "MEAN_MOTION_DOT": 0.0004532,
    "MEAN_MOTION_DDOT": 0.0,
    "TLE_LINE1": "1 63284U 25053V   25315.01546542  .00045320  00000+0  16426-2 0  9995",
    "TLE_LINE2": "2 63284  43.0028 184.1932 0002237 260.8983  99.1616 15.27653267 38243",
    "COMMENT": "Grouped by shell and plane from TLE"
  }
]